{
  "type": "FeatureCollection",
  "features": [
    {
      "type": "Feature",
      "properties": {
        "norad_id": 36744,
        "name": "COMS 1",
        "group": "weather",
        "lat": -1.740708467551162,
        "lon": -78.9824370444482,
        "alt_km": 35783.24923517452,
        "timestamp": "2025-12-25T03:55:55.948596+00:00",
        "meta_object_name": "COMS 1",
        "meta_object_id": "2010-032A",
        "meta_epoch": "2025-12-24T17:07:55.400160",
        "meta_mean_motion": 1.00270285,
        "meta_eccentricity": 8.7e-05,
        "meta_inclination": 4.3672,
        "meta_ra_of_asc_node": 77.8633,
        "meta_arg_of_pericenter": 218.4847,
        "meta_mean_anomaly": 182.2916,
        "meta_ephemeris_type": 0,
        "meta_classification_type": "U",
        "meta_norad_cat_id": 36744,
        "meta_element_set_no": 999,
        "meta_rev_at_epoch": 4934,
        "meta_bstar": 0,
        "meta_mean_motion_dot": -3.25e-06,
        "meta_mean_motion_ddot": 0,
        "tle_line1": "1 36744U 10032A   25358.71383565 -.00000325  00000+0  00000+0 0  9990",
        "tle_line2": "2 36744   4.3672  77.8633 0000870 218.4847 182.2916  1.00270285 49345"
      },
      "geometry": {
        "type": "Point",
        "coordinates": [
          -78.9824370444482,
          -1.740708467551162
        ]
      }
    },
    {
      "type": "Feature",
      "properties": {
        "norad_id": 37214,
        "name": "FENGYUN 3B",
        "group": "weather",
        "lat": -77.68246086373094,
        "lon": 85.68510705463993,
        "alt_km": 839.048558023932,
        "timestamp": "2025-12-25T03:55:55.948609+00:00",
        "meta_object_name": "FENGYUN 3B",
        "meta_object_id": "2010-059A",
        "meta_epoch": "2025-12-24T20:38:50.066016",
        "meta_mean_motion": 14.14792832,
        "meta_eccentricity": 0.0021521,
        "meta_inclination": 98.9886,
        "meta_ra_of_asc_node": 38.9211,
        "meta_arg_of_pericenter": 322.9269,
        "meta_mean_anomaly": 210.5643,
        "meta_ephemeris_type": 0,
        "meta_classification_type": "U",
        "meta_norad_cat_id": 37214,
        "meta_element_set_no": 999,
        "meta_rev_at_epoch": 78277,
        "meta_bstar": 0.00012389,
        "meta_mean_motion_dot": 1.94e-06,
        "meta_mean_motion_ddot": 0,
        "tle_line1": "1 37214U 10059A   25358.86030169  .00000194  00000+0  12389-3 0  9997",
        "tle_line2": "2 37214  98.9886  38.9211 0021521 322.9269 210.5643 14.14792832782778"
      },
      "geometry": {
        "type": "Point",
        "coordinates": [
          85.68510705463993,
          -77.68246086373094
        ]
      }
    },
    {
      "type": "Feature",
      "properties": {
        "norad_id": 37849,
        "name": "SUOMI NPP",
        "group": "weather",
        "lat": -29.496513421388745,
        "lon": -58.59112035957838,
        "alt_km": 833.884213377517,
        "timestamp": "2025-12-25T03:55:55.948620+00:00",
        "meta_object_name": "SUOMI NPP",
        "meta_object_id": "2011-061A",
        "meta_epoch": "2025-12-22T15:10:21.732672",
        "meta_mean_motion": 14.19516903,
        "meta_eccentricity": 0.00024883,
        "meta_inclination": 98.7787,
        "meta_ra_of_asc_node": 293.8852,
        "meta_arg_of_pericenter": 103.0781,
        "meta_mean_anomaly": 257.0673,
        "meta_ephemeris_type": 0,
        "meta_classification_type": "U",
        "meta_norad_cat_id": 37849,
        "meta_element_set_no": 999,
        "meta_rev_at_epoch": 73339,
        "meta_bstar": 6.3406935e-05,
        "meta_mean_motion_dot": 8.9e-07,
        "meta_mean_motion_ddot": 0,
        "tle_line1": "1 37849U 11061A   25356.63219598  .00000089  00000+0  63407-4 0  9994",
        "tle_line2": "2 37849  98.7787 293.8852 0002488 103.0781 257.0673 14.19516903733392"
      },
      "geometry": {
        "type": "Point",
        "coordinates": [
          -58.59112035957838,
          -29.496513421388745
        ]
      }
    },
    {
      "type": "Feature",
      "properties": {
        "norad_id": 38552,
        "name": "METEOSAT-10 (MSG-3)",
        "group": "weather",
        "lat": 4.269228492252913,
        "lon": 153.19550954742576,
        "alt_km": 35793.03368925239,
        "timestamp": "2025-12-25T03:55:55.948633+00:00",
        "meta_object_name": "METEOSAT-10 (MSG-3)",
        "meta_object_id": "2012-035B",
        "meta_epoch": "2025-12-23T23:24:15.412032",
        "meta_mean_motion": 1.00266372,
        "meta_eccentricity": 0.0001439,
        "meta_inclination": 4.2534,
        "meta_ra_of_asc_node": 61.6917,
        "meta_arg_of_pericenter": 267.4688,
        "meta_mean_anomaly": 114.9679,
        "meta_ephemeris_type": 0,
        "meta_classification_type": "U",
        "meta_norad_cat_id": 38552,
        "meta_element_set_no": 999,
        "meta_rev_at_epoch": 4910,
        "meta_bstar": 0,
        "meta_mean_motion_dot": 1.4e-07,
        "meta_mean_motion_ddot": 0,
        "tle_line1": "1 38552U 12035B   25357.97517838  .00000014  00000+0  00000+0 0  9997",
        "tle_line2": "2 38552   4.2534  61.6917 0001439 267.4688 114.9679  1.00266372 49109"
      },
      "geometry": {
        "type": "Point",
        "coordinates": [
          153.19550954742576,
          4.269228492252913
        ]
      }
    },
    {
      "type": "Feature",
      "properties": {
        "norad_id": 38771,
        "name": "METOP-B",
        "group": "weather",
        "lat": -80.8280595088263,
        "lon": 157.8410260925357,
        "alt_km": 829.9283241149533,
        "timestamp": "2025-12-25T03:55:55.948645+00:00",
        "meta_object_name": "METOP-B",
        "meta_object_id": "2012-049A",
        "meta_epoch": "2025-12-24T18:13:58.115424",
        "meta_mean_motion": 14.21412783,
        "meta_eccentricity": 0.0003267,
        "meta_inclination": 98.6782,
        "meta_ra_of_asc_node": 48.5138,
        "meta_arg_of_pericenter": 119.009,
        "meta_mean_anomaly": 241.1415,
        "meta_ephemeris_type": 0,
        "meta_classification_type": "U",
        "meta_norad_cat_id": 38771,
        "meta_element_set_no": 999,
        "meta_rev_at_epoch": 68848,
        "meta_bstar": 7.7091e-05,
        "meta_mean_motion_dot": 1.25e-06,
        "meta_mean_motion_ddot": 0,
        "tle_line1": "1 38771U 12049A   25358.75970041  .00000125  00000+0  77091-4 0  9993",
        "tle_line2": "2 38771  98.6782  48.5138 0003267 119.0090 241.1415 14.21412783688480"
      },
      "geometry": {
        "type": "Point",
        "coordinates": [
          157.8410260925357,
          -80.8280595088263
        ]
      }
    },
    {
      "type": "Feature",
      "properties": {
        "norad_id": 39216,
        "name": "INSAT-3D",
        "group": "weather",
        "lat": -0.4669143380292223,
        "lon": -77.5434453894856,
        "alt_km": 35779.44298613228,
        "timestamp": "2025-12-25T03:55:55.948658+00:00",
        "meta_object_name": "INSAT-3D",
        "meta_object_id": "2013-038B",
        "meta_epoch": "2025-12-24T17:10:38.482752",
        "meta_mean_motion": 1.00274542,
        "meta_eccentricity": 0.0001893,
        "meta_inclination": 1.474,
        "meta_ra_of_asc_node": 84.8623,
        "meta_arg_of_pericenter": 155.9194,
        "meta_mean_anomaly": 239.902,
        "meta_ephemeris_type": 0,
        "meta_classification_type": "U",
        "meta_norad_cat_id": 39216,
        "meta_element_set_no": 999,
        "meta_rev_at_epoch": 4533,
        "meta_bstar": 0,
        "meta_mean_motion_dot": -3.18e-06,
        "meta_mean_motion_ddot": 0,
        "tle_line1": "1 39216U 13038B   25358.71572318 -.00000318  00000+0  00000+0 0  9994",
        "tle_line2": "2 39216   1.4740  84.8623 0001893 155.9194 239.9020  1.00274542 45330"
      },
      "geometry": {
        "type": "Point",
        "coordinates": [
          -77.5434453894856,
          -0.4669143380292223
        ]
      }
    },
    {
      "type": "Feature",
      "properties": {
        "norad_id": 39260,
        "name": "FENGYUN 3C",
        "group": "weather",
        "lat": -76.01141615371975,
        "lon": 119.45951359040444,
        "alt_km": 848.8408825476399,
        "timestamp": "2025-12-25T03:55:55.948669+00:00",
        "meta_object_name": "FENGYUN 3C",
        "meta_object_id": "2013-052A",
        "meta_epoch": "2025-12-24T21:37:32.415168",
        "meta_mean_motion": 14.15699899,
        "meta_eccentricity": 0.0014958,
        "meta_inclination": 98.4778,
        "meta_ra_of_asc_node": 335.9874,
        "meta_arg_of_pericenter": 160.9709,
        "meta_mean_anomaly": 199.2027,
        "meta_ephemeris_type": 0,
        "meta_classification_type": "U",
        "meta_norad_cat_id": 39260,
        "meta_element_set_no": 999,
        "meta_rev_at_epoch": 63390,
        "meta_bstar": 8.2575e-05,
        "meta_mean_motion_dot": 1.21e-06,
        "meta_mean_motion_ddot": 0,
        "tle_line1": "1 39260U 13052A   25358.90106962  .00000121  00000+0  82575-4 0  9991",
        "tle_line2": "2 39260  98.4778 335.9874 0014958 160.9709 199.2027 14.15699899633905"
      },
      "geometry": {
        "type": "Point",
        "coordinates": [
          119.45951359040444,
          -76.01141615371975
        ]
      }
    }
  ]
}